CCSDS_OMM_VERS = 2.0
CREATION_DATE  = 
ORIGINATOR     = 

OBJECT_NAME    = STARLINK-36839
OBJECT_ID      = 2026-044AA
CENTER_NAME    = EARTH
REF_FRAME      = TEME
TIME_SYSTEM    = UTC
MEAN_ELEMENT_THEORY = SGP/SGP4

EPOCH          = 2026-04-05T06:00:02.000160
MEAN_MOTION    = 15.49123831
ECCENTRICITY   = .00018158
INCLINATION    = 97.2858
RA_OF_ASC_NODE = 56.5989
ARG_OF_PERICENTER = 95.4680
MEAN_ANOMALY   = 299.0449

EPHEMERIS_TYPE = 0
CLASSIFICATION_TYPE = U
NORAD_CAT_ID   = 68125
ELEMENT_SET_NO = 999
REV_AT_EPOCH   = 562
BSTAR          = .29490569E-2
MEAN_MOTION_DOT = .163299E-2
MEAN_MOTION_DDOT = 0

CCSDS_OMM_VERS = 2.0
CREATION_DATE  = 
ORIGINATOR     = 

OBJECT_NAME    = ECHOSTAR 25
OBJECT_ID      = 2026-045A
CENTER_NAME    = EARTH
REF_FRAME      = TEME
TIME_SYSTEM    = UTC
MEAN_ELEMENT_THEORY = SGP/SGP4

EPOCH          = 2026-04-05T05:49:38.503200
MEAN_MOTION    = 1.00271198
ECCENTRICITY   = .00017855
INCLINATION    = 0.0337
RA_OF_ASC_NODE = 281.7974
ARG_OF_PERICENTER = 154.0499
MEAN_ANOMALY   = 76.2518

EPHEMERIS_TYPE = 0
CLASSIFICATION_TYPE = U
NORAD_CAT_ID   = 68126
ELEMENT_SET_NO = 999
REV_AT_EPOCH   = 26
BSTAR          = 0
MEAN_MOTION_DOT = .59E-6
MEAN_MOTION_DDOT = 0

CCSDS_OMM_VERS = 2.0
CREATION_DATE  = 
ORIGINATOR     = 

OBJECT_NAME    = ICOR SV
OBJECT_ID      = 2026-046A
CENTER_NAME    = EARTH
REF_FRAME      = TEME
TIME_SYSTEM    = UTC
MEAN_ELEMENT_THEORY = SGP/SGP4

EPOCH          = 2026-04-05T06:32:05.791200
MEAN_MOTION    = 16.02062968
ECCENTRICITY   = .00845967
INCLINATION    = 123.0716
RA_OF_ASC_NODE = 327.7655
ARG_OF_PERICENTER = 238.8476
MEAN_ANOMALY   = 120.4285

EPHEMERIS_TYPE = 0
CLASSIFICATION_TYPE = U
NORAD_CAT_ID   = 68127
ELEMENT_SET_NO = 999
REV_AT_EPOCH   = 383
BSTAR          = .6381383E-3
MEAN_MOTION_DOT = .587974E-2
MEAN_MOTION_DDOT = .12327818E-4

CCSDS_OMM_VERS = 2.0
CREATION_DATE  = 
ORIGINATOR     = 

OBJECT_NAME    = FIREFLY ALPHA R/B
OBJECT_ID      = 2026-046B
CENTER_NAME    = EARTH
REF_FRAME      = TEME
TIME_SYSTEM    = UTC
MEAN_ELEMENT_THEORY = SGP/SGP4

EPOCH          = 2026-04-05T06:48:07.751520
MEAN_MOTION    = 15.57987179
ECCENTRICITY   = .00175074
INCLINATION    = 123.0916
RA_OF_ASC_NODE = 322.3418
ARG_OF_PERICENTER = 31.7180
MEAN_ANOMALY   = 328.4932

EPHEMERIS_TYPE = 0
CLASSIFICATION_TYPE = U
NORAD_CAT_ID   = 68128
ELEMENT_SET_NO = 999
REV_AT_EPOCH   = 378
BSTAR          = .57716651E-3
MEAN_MOTION_DOT = .44011E-3
MEAN_MOTION_DDOT = 0

CCSDS_OMM_VERS = 2.0
CREATION_DATE  = 
ORIGINATOR     = 

OBJECT_NAME    = GUOWANG GROUP 20 OBJECT A
OBJECT_ID      = 2026-047A
CENTER_NAME    = EARTH
REF_FRAME      = TEME
TIME_SYSTEM    = UTC
MEAN_ELEMENT_THEORY = SGP/SGP4

EPOCH          = 2026-04-04T02:24:09.516096
MEAN_MOTION    = 13.82826474
ECCENTRICITY   = .00006607
INCLINATION    = 50.0020
RA_OF_ASC_NODE = 327.8486
ARG_OF_PERICENTER = 106.3931
MEAN_ANOMALY   = 253.7037

EPHEMERIS_TYPE = 0
CLASSIFICATION_TYPE = U
NORAD_CAT_ID   = 68129
ELEMENT_SET_NO = 999
REV_AT_EPOCH   = 312
BSTAR          = .50704986E-4
MEAN_MOTION_DOT = -.88E-6
MEAN_MOTION_DDOT = 0

CCSDS_OMM_VERS = 2.0
CREATION_DATE  = 
ORIGINATOR     = 

OBJECT_NAME    = GUOWANG GROUP 20 OBJECT B
OBJECT_ID      = 2026-047B
CENTER_NAME    = EARTH
REF_FRAME      = TEME
TIME_SYSTEM    = UTC
MEAN_ELEMENT_THEORY = SGP/SGP4

EPOCH          = 2026-04-01T05:04:40.456704
MEAN_MOTION    = 13.87767313
ECCENTRICITY   = .00001339
INCLINATION    = 50.0054
RA_OF_ASC_NODE = 339.2252
ARG_OF_PERICENTER = 185.6237
MEAN_ANOMALY   = 174.4659

EPHEMERIS_TYPE = 0
CLASSIFICATION_TYPE = U
NORAD_CAT_ID   = 68130
ELEMENT_SET_NO = 999
REV_AT_EPOCH   = 271
BSTAR          = .69791497E-4
MEAN_MOTION_DOT = -.62E-6
MEAN_MOTION_DDOT = 0

CCSDS_OMM_VERS = 2.0
CREATION_DATE  = 
ORIGINATOR     = 

OBJECT_NAME    = GUOWANG GROUP 20 OBJECT C
OBJECT_ID      = 2026-047C
CENTER_NAME    = EARTH
REF_FRAME      = TEME
TIME_SYSTEM    = UTC
MEAN_ELEMENT_THEORY = SGP/SGP4

EPOCH          = 2026-04-02T12:08:18.567744
MEAN_MOTION    = 13.86320500
ECCENTRICITY   = .00006698
INCLINATION    = 50.0019
RA_OF_ASC_NODE = 334.0677
ARG_OF_PERICENTER = 236.5521
MEAN_ANOMALY   = 123.5312

EPHEMERIS_TYPE = 0
CLASSIFICATION_TYPE = U
NORAD_CAT_ID   = 68131
ELEMENT_SET_NO = 999
REV_AT_EPOCH   = 290
BSTAR          = .42135642E-4
MEAN_MOTION_DOT = -.96E-6
MEAN_MOTION_DDOT = 0

CCSDS_OMM_VERS = 2.0
CREATION_DATE  = 
ORIGINATOR     = 

OBJECT_NAME    = GUOWANG GROUP 20 OBJECT D
OBJECT_ID      = 2026-047D
CENTER_NAME    = EARTH
REF_FRAME      = TEME
TIME_SYSTEM    = UTC
MEAN_ELEMENT_THEORY = SGP/SGP4

EPOCH          = 2026-04-02T13:48:14.018400
MEAN_MOTION    = 13.86594040
ECCENTRICITY   = .00007103
INCLINATION    = 50.0067
RA_OF_ASC_NODE = 333.7806
ARG_OF_PERICENTER = 245.0360
MEAN_ANOMALY   = 115.0463

EPHEMERIS_TYPE = 0
CLASSIFICATION_TYPE = U
NORAD_CAT_ID   = 68132
ELEMENT_SET_NO = 999
REV_AT_EPOCH   = 290
BSTAR          = .51916391E-4
MEAN_MOTION_DOT = -.84E-6
MEAN_MOTION_DDOT = 0

CCSDS_OMM_VERS = 2.0
CREATION_DATE  = 
ORIGINATOR     = 

OBJECT_NAME    = GUOWANG GROUP 20 OBJECT E
OBJECT_ID      = 2026-047E
CENTER_NAME    = EARTH
REF_FRAME      = TEME
TIME_SYSTEM    = UTC
MEAN_ELEMENT_THEORY = SGP/SGP4

EPOCH          = 2026-04-03T00:06:50.722272
MEAN_MOTION    = 13.85521979
ECCENTRICITY   = .00008265
INCLINATION    = 50.0078
RA_OF_ASC_NODE = 332.0369
ARG_OF_PERICENTER = 23.1230
MEAN_ANOMALY   = 336.9704

EPHEMERIS_TYPE = 0
CLASSIFICATION_TYPE = U
NORAD_CAT_ID   = 68133
ELEMENT_SET_NO = 999
REV_AT_EPOCH   = 297
BSTAR          = .48670636E-4
MEAN_MOTION_DOT = -.89E-6
MEAN_MOTION_DDOT = 0

CCSDS_OMM_VERS = 2.0
CREATION_DATE  = 
ORIGINATOR     = 

OBJECT_NAME    = GUOWANG GROUP 20 OBJECT F
OBJECT_ID      = 2026-047F
CENTER_NAME    = EARTH
REF_FRAME      = TEME
TIME_SYSTEM    = UTC
MEAN_ELEMENT_THEORY = SGP/SGP4

EPOCH          = 2026-04-02T13:36:24.060096
MEAN_MOTION    = 13.87190720
ECCENTRICITY   = .0000629
INCLINATION    = 50.0093
RA_OF_ASC_NODE = 333.7419
ARG_OF_PERICENTER = 256.4099
MEAN_ANOMALY   = 103.6728

EPHEMERIS_TYPE = 0
CLASSIFICATION_TYPE = U
NORAD_CAT_ID   = 68134
ELEMENT_SET_NO = 999
REV_AT_EPOCH   = 290
BSTAR          = .95092278E-4
MEAN_MOTION_DOT = -.33E-6
MEAN_MOTION_DDOT = 0

CCSDS_OMM_VERS = 2.0
CREATION_DATE  = 
ORIGINATOR     = 

OBJECT_NAME    = GUOWANG GROUP 20 OBJECT G
OBJECT_ID      = 2026-047G
CENTER_NAME    = EARTH
REF_FRAME      = TEME
TIME_SYSTEM    = UTC
MEAN_ELEMENT_THEORY = SGP/SGP4

EPOCH          = 2026-04-04T10:41:27.076128
MEAN_MOTION    = 13.83778399
ECCENTRICITY   = .0000767
INCLINATION    = 50.0135
RA_OF_ASC_NODE = 326.3688
ARG_OF_PERICENTER = 146.6368
MEAN_ANOMALY   = 213.4577

EPHEMERIS_TYPE = 0
CLASSIFICATION_TYPE = U
NORAD_CAT_ID   = 68135
ELEMENT_SET_NO = 999
REV_AT_EPOCH   = 317
BSTAR          = .14576E-3
MEAN_MOTION_DOT = .18E-6
MEAN_MOTION_DDOT = 0

CCSDS_OMM_VERS = 2.0
CREATION_DATE  = 
ORIGINATOR     = 

OBJECT_NAME    = GUOWANG GROUP 20 OBJECT H
OBJECT_ID      = 2026-047H
CENTER_NAME    = EARTH
REF_FRAME      = TEME
TIME_SYSTEM    = UTC
MEAN_ELEMENT_THEORY = SGP/SGP4

EPOCH          = 2026-04-02T11:48:51.915456
MEAN_MOTION    = 13.87381469
ECCENTRICITY   = .00009093
INCLINATION    = 50.0086
RA_OF_ASC_NODE = 334.0113
ARG_OF_PERICENTER = 305.9014
MEAN_ANOMALY   = 54.1799

EPHEMERIS_TYPE = 0
CLASSIFICATION_TYPE = U
NORAD_CAT_ID   = 68136
ELEMENT_SET_NO = 999
REV_AT_EPOCH   = 289
BSTAR          = .48250788E-4
MEAN_MOTION_DOT = -.88E-6
MEAN_MOTION_DDOT = 0

